[{"OBJECT_NAME":"YAOGAN-36 03A","OBJECT_ID":"2022-160A","EPOCH":"2026-03-09T21:08:19.248576","MEAN_MOTION":15.31468155,"ECCENTRICITY":0.00027649,"INCLINATION":34.9999,"RA_OF_ASC_NODE":237.2222,"ARG_OF_PERICENTER":84.1273,"MEAN_ANOMALY":275.9759,"EPHEMERIS_TYPE":0,"CLASSIFICATION_TYPE":"U","NORAD_CAT_ID":54372,"ELEMENT_SET_NO":999,"REV_AT_EPOCH":18296,"BSTAR":0.00056596392,"MEAN_MOTION_DOT":0.00017652,"MEAN_MOTION_DDOT":0},{"OBJECT_NAME":"YAOGAN-36 04C","OBJECT_ID":"2022-171E","EPOCH":"2026-03-09T18:55:44.889600","MEAN_MOTION":15.29852307,"ECCENTRICITY":0.00066848,"INCLINATION":34.9797,"RA_OF_ASC_NODE":96.6578,"ARG_OF_PERICENTER":275.3761,"MEAN_ANOMALY":84.6192,"EPHEMERIS_TYPE":0,"CLASSIFICATION_TYPE":"U","NORAD_CAT_ID":54750,"ELEMENT_SET_NO":999,"REV_AT_EPOCH":18024,"BSTAR":0.00054591902,"MEAN_MOTION_DOT":0.00016196,"MEAN_MOTION_DDOT":0}]
